[
  {
    "OBJECT_NAME": "STARLINK-31848",
    "OBJECT_ID": "24093C",
    "EPOCH": "2025-11-10T20:51:36.461664",
    "MEAN_MOTION": 15.27584202,
    "ECCENTRICITY": 0.0001378,
    "INCLINATION": 42.9996,
    "RA_OF_ASC_NODE": 156.4517,
    "ARG_OF_PERICENTER": 267.6785,
    "MEAN_ANOMALY": 92.3909,
    "EPHEMERIS_TYPE": 0,
    "CLASSIFICATION_TYPE": "U",
    "NORAD_CAT_ID": 59784,
    "ELEMENT_SET_NO": 999,
    "REV_AT_EPOCH": 8456,
    "BSTAR": 5.5914e-05,
    "MEAN_MOTION_DOT": 1.277e-05,
    "MEAN_MOTION_DDOT": 0.0,
    "TLE_LINE1": "1 59784U 24093C   25314.86917201  .00001277  00000+0  55914-4 0  9994",
    "TLE_LINE2": "2 59784  42.9996 156.4517 0001378 267.6785  92.3909 15.27584202 84564",
    "COMMENT": "Grouped by shell and plane from TLE"
  },
  {
    "OBJECT_NAME": "STARLINK-31890",
    "OBJECT_ID": "24093D",
    "EPOCH": "2025-11-10T22:31:18.792480",
    "MEAN_MOTION": 15.2759517,
    "ECCENTRICITY": 0.0001065,
    "INCLINATION": 43.0041,
    "RA_OF_ASC_NODE": 156.1089,
    "ARG_OF_PERICENTER": 275.6049,
    "MEAN_ANOMALY": 84.4681,
    "EPHEMERIS_TYPE": 0,
    "CLASSIFICATION_TYPE": "U",
    "NORAD_CAT_ID": 59785,
    "ELEMENT_SET_NO": 999,
    "REV_AT_EPOCH": 8457,
    "BSTAR": 7.2093e-05,
    "MEAN_MOTION_DOT": 1.723e-05,
    "MEAN_MOTION_DDOT": 0.0,
    "TLE_LINE1": "1 59785U 24093D   25314.93841195  .00001723  00000+0  72093-4 0  9994",
    "TLE_LINE2": "2 59785  43.0041 156.1089 0001065 275.6049  84.4681 15.27595170 84570",
    "COMMENT": "Grouped by shell and plane from TLE"
  },
  {
    "OBJECT_NAME": "STARLINK-31862",
    "OBJECT_ID": "24093E",
    "EPOCH": "2025-11-10T23:25:55.387200",
    "MEAN_MOTION": 15.27590159,
    "ECCENTRICITY": 0.00012,
    "INCLINATION": 43.0009,
    "RA_OF_ASC_NODE": 158.9912,
    "ARG_OF_PERICENTER": 265.1869,
    "MEAN_ANOMALY": 94.8845,
    "EPHEMERIS_TYPE": 0,
    "CLASSIFICATION_TYPE": "U",
    "NORAD_CAT_ID": 59786,
    "ELEMENT_SET_NO": 999,
    "REV_AT_EPOCH": 8454,
    "BSTAR": 2.6856999999999997e-05,
    "MEAN_MOTION_DOT": 4.77e-06,
    "MEAN_MOTION_DDOT": 0.0,
    "TLE_LINE1": "1 59786U 24093E   25314.97633550  .00000477  00000+0  26857-4 0  9995",
    "TLE_LINE2": "2 59786  43.0009 158.9912 0001200 265.1869  94.8845 15.27590159 84541",
    "COMMENT": "Grouped by shell and plane from TLE"
  },
  {
    "OBJECT_NAME": "STARLINK-31870",
    "OBJECT_ID": "24093F",
    "EPOCH": "2025-11-10T23:20:22.680672",
    "MEAN_MOTION": 15.2758605,
    "ECCENTRICITY": 0.0001451,
    "INCLINATION": 43.0003,
    "RA_OF_ASC_NODE": 158.9643,
    "ARG_OF_PERICENTER": 267.1289,
    "MEAN_ANOMALY": 92.9396,
    "EPHEMERIS_TYPE": 0,
    "CLASSIFICATION_TYPE": "U",
    "NORAD_CAT_ID": 59787,
    "ELEMENT_SET_NO": 999,
    "REV_AT_EPOCH": 8454,
    "BSTAR": 0.00020892,
    "MEAN_MOTION_DOT": 5.492e-05,
    "MEAN_MOTION_DDOT": 0.0,
    "TLE_LINE1": "1 59787U 24093F   25314.97248473  .00005492  00000+0  20892-3 0  9996",
    "TLE_LINE2": "2 59787  43.0003 158.9643 0001451 267.1289  92.9396 15.27586050 84548",
    "COMMENT": "Grouped by shell and plane from TLE"
  },
  {
    "OBJECT_NAME": "STARLINK-31873",
    "OBJECT_ID": "24093J",
    "EPOCH": "2025-11-10T23:46:16.534560",
    "MEAN_MOTION": 15.27585828,
    "ECCENTRICITY": 5.56e-05,
    "INCLINATION": 42.9993,
    "RA_OF_ASC_NODE": 159.0964,
    "ARG_OF_PERICENTER": 284.0895,
    "MEAN_ANOMALY": 75.9895,
    "EPHEMERIS_TYPE": 0,
    "CLASSIFICATION_TYPE": "U",
    "NORAD_CAT_ID": 59790,
    "ELEMENT_SET_NO": 999,
    "REV_AT_EPOCH": 8454,
    "BSTAR": 0.00010206999999999999,
    "MEAN_MOTION_DOT": 2.549e-05,
    "MEAN_MOTION_DDOT": 0.0,
    "TLE_LINE1": "1 59790U 24093J   25314.99046915  .00002549  00000+0  10207-3 0  9998",
    "TLE_LINE2": "2 59790  42.9993 159.0964 0000556 284.0895  75.9895 15.27585828 84549",
    "COMMENT": "Grouped by shell and plane from TLE"
  },
  {
    "OBJECT_NAME": "STARLINK-31865",
    "OBJECT_ID": "24093K",
    "EPOCH": "2025-11-10T23:51:49.961664",
    "MEAN_MOTION": 15.27580792,
    "ECCENTRICITY": 0.0001102,
    "INCLINATION": 42.9983,
    "RA_OF_ASC_NODE": 159.1251,
    "ARG_OF_PERICENTER": 271.5652,
    "MEAN_ANOMALY": 88.5073,
    "EPHEMERIS_TYPE": 0,
    "CLASSIFICATION_TYPE": "U",
    "NORAD_CAT_ID": 59791,
    "ELEMENT_SET_NO": 999,
    "REV_AT_EPOCH": 8454,
    "BSTAR": 0.00032418000000000003,
    "MEAN_MOTION_DOT": 8.669e-05,
    "MEAN_MOTION_DDOT": 0.0,
    "TLE_LINE1": "1 59791U 24093K   25314.99432826  .00008669  00000+0  32418-3 0  9996",
    "TLE_LINE2": "2 59791  42.9983 159.1251 0001102 271.5652  88.5073 15.27580792 84542",
    "COMMENT": "Grouped by shell and plane from TLE"
  },
  {
    "OBJECT_NAME": "STARLINK-31823",
    "OBJECT_ID": "24093N",
    "EPOCH": "2025-11-11T06:14:00.201120",
    "MEAN_MOTION": 15.27588792,
    "ECCENTRICITY": 0.0001146,
    "INCLINATION": 42.9997,
    "RA_OF_ASC_NODE": 157.6773,
    "ARG_OF_PERICENTER": 267.4824,
    "MEAN_ANOMALY": 92.5896,
    "EPHEMERIS_TYPE": 0,
    "CLASSIFICATION_TYPE": "U",
    "NORAD_CAT_ID": 59794,
    "ELEMENT_SET_NO": 999,
    "REV_AT_EPOCH": 8458,
    "BSTAR": 5.1318e-05,
    "MEAN_MOTION_DOT": 1.151e-05,
    "MEAN_MOTION_DDOT": 0.0,
    "TLE_LINE1": "1 59794U 24093N   25315.25972455  .00001151  00000+0  51318-4 0  9996",
    "TLE_LINE2": "2 59794  42.9997 157.6773 0001146 267.4824  92.5896 15.27588792 84585",
    "COMMENT": "Grouped by shell and plane from TLE"
  },
  {
    "OBJECT_NAME": "STARLINK-31916",
    "OBJECT_ID": "24093P",
    "EPOCH": "2025-11-10T22:28:46.717248",
    "MEAN_MOTION": 15.27567413,
    "ECCENTRICITY": 6.75e-05,
    "INCLINATION": 43.0019,
    "RA_OF_ASC_NODE": 159.5537,
    "ARG_OF_PERICENTER": 259.5141,
    "MEAN_ANOMALY": 100.5635,
    "EPHEMERIS_TYPE": 0,
    "CLASSIFICATION_TYPE": "U",
    "NORAD_CAT_ID": 59795,
    "ELEMENT_SET_NO": 999,
    "REV_AT_EPOCH": 8453,
    "BSTAR": 0.00015984999999999998,
    "MEAN_MOTION_DOT": 4.138e-05,
    "MEAN_MOTION_DDOT": 0.0,
    "TLE_LINE1": "1 59795U 24093P   25314.93665182  .00004138  00000+0  15985-3 0  9994",
    "TLE_LINE2": "2 59795  43.0019 159.5537 0000675 259.5141 100.5635 15.27567413 84535",
    "COMMENT": "Grouped by shell and plane from TLE"
  },
  {
    "OBJECT_NAME": "STARLINK-31907",
    "OBJECT_ID": "24093R",
    "EPOCH": "2025-11-11T06:23:15.385920",
    "MEAN_MOTION": 15.27585138,
    "ECCENTRICITY": 0.0001029,
    "INCLINATION": 42.9977,
    "RA_OF_ASC_NODE": 157.7258,
    "ARG_OF_PERICENTER": 264.5514,
    "MEAN_ANOMALY": 95.522,
    "EPHEMERIS_TYPE": 0,
    "CLASSIFICATION_TYPE": "U",
    "NORAD_CAT_ID": 59797,
    "ELEMENT_SET_NO": 999,
    "REV_AT_EPOCH": 8458,
    "BSTAR": 0.00010645,
    "MEAN_MOTION_DOT": 2.669e-05,
    "MEAN_MOTION_DDOT": 0.0,
    "TLE_LINE1": "1 59797U 24093R   25315.26615030  .00002669  00000+0  10645-3 0  9995",
    "TLE_LINE2": "2 59797  42.9977 157.7258 0001029 264.5514  95.5220 15.27585138 84584",
    "COMMENT": "Grouped by shell and plane from TLE"
  },
  {
    "OBJECT_NAME": "STARLINK-31687",
    "OBJECT_ID": "24093S",
    "EPOCH": "2025-11-11T07:00:15.806304",
    "MEAN_MOTION": 15.2758257,
    "ECCENTRICITY": 0.0001348,
    "INCLINATION": 43.0062,
    "RA_OF_ASC_NODE": 157.9188,
    "ARG_OF_PERICENTER": 254.4331,
    "MEAN_ANOMALY": 105.6372,
    "EPHEMERIS_TYPE": 0,
    "CLASSIFICATION_TYPE": "U",
    "NORAD_CAT_ID": 59798,
    "ELEMENT_SET_NO": 999,
    "REV_AT_EPOCH": 8458,
    "BSTAR": 9.2468e-05,
    "MEAN_MOTION_DOT": 2.283e-05,
    "MEAN_MOTION_DDOT": 0.0,
    "TLE_LINE1": "1 59798U 24093S   25315.29184961  .00002283  00000+0  92468-4 0  9999",
    "TLE_LINE2": "2 59798  43.0062 157.9188 0001348 254.4331 105.6372 15.27582570 84583",
    "COMMENT": "Grouped by shell and plane from TLE"
  },
  {
    "OBJECT_NAME": "STARLINK-31810",
    "OBJECT_ID": "24093T",
    "EPOCH": "2025-11-11T06:39:54.620928",
    "MEAN_MOTION": 15.27600968,
    "ECCENTRICITY": 5.84e-05,
    "INCLINATION": 43.0016,
    "RA_OF_ASC_NODE": 157.8142,
    "ARG_OF_PERICENTER": 25.2952,
    "MEAN_ANOMALY": 334.7929,
    "EPHEMERIS_TYPE": 0,
    "CLASSIFICATION_TYPE": "U",
    "NORAD_CAT_ID": 59799,
    "ELEMENT_SET_NO": 999,
    "REV_AT_EPOCH": 8458,
    "BSTAR": 0.0,
    "MEAN_MOTION_DOT": -3.289e-05,
    "MEAN_MOTION_DDOT": 0.0,
    "TLE_LINE1": "1 59799U 24093T   25315.27771552 -.00003289  00000+0 -11000-3 0  9997",
    "TLE_LINE2": "2 59799  43.0016 157.8142 0000584  25.2952 334.7929 15.27600968 84581",
    "COMMENT": "Grouped by shell and plane from TLE"
  },
  {
    "OBJECT_NAME": "STARLINK-31812",
    "OBJECT_ID": "24093U",
    "EPOCH": "2025-11-11T06:28:48.161568",
    "MEAN_MOTION": 15.27587487,
    "ECCENTRICITY": 0.0001057,
    "INCLINATION": 42.9998,
    "RA_OF_ASC_NODE": 157.7552,
    "ARG_OF_PERICENTER": 264.8866,
    "MEAN_ANOMALY": 95.1865,
    "EPHEMERIS_TYPE": 0,
    "CLASSIFICATION_TYPE": "U",
    "NORAD_CAT_ID": 59800,
    "ELEMENT_SET_NO": 999,
    "REV_AT_EPOCH": 8465,
    "BSTAR": 7.0827e-05,
    "MEAN_MOTION_DOT": 1.688e-05,
    "MEAN_MOTION_DDOT": 0.0,
    "TLE_LINE1": "1 59800U 24093U   25315.27000187  .00001688  00000+0  70827-4 0  9991",
    "TLE_LINE2": "2 59800  42.9998 157.7552 0001057 264.8866  95.1865 15.27587487 84651",
    "COMMENT": "Grouped by shell and plane from TLE"
  },
  {
    "OBJECT_NAME": "STARLINK-31815",
    "OBJECT_ID": "24093V",
    "EPOCH": "2025-11-11T06:34:21.174816",
    "MEAN_MOTION": 15.27588312,
    "ECCENTRICITY": 0.0001184,
    "INCLINATION": 43.0016,
    "RA_OF_ASC_NODE": 157.7843,
    "ARG_OF_PERICENTER": 261.5847,
    "MEAN_ANOMALY": 98.487,
    "EPHEMERIS_TYPE": 0,
    "CLASSIFICATION_TYPE": "U",
    "NORAD_CAT_ID": 59801,
    "ELEMENT_SET_NO": 999,
    "REV_AT_EPOCH": 8458,
    "BSTAR": 5.1918e-05,
    "MEAN_MOTION_DOT": 1.167e-05,
    "MEAN_MOTION_DDOT": 0.0,
    "TLE_LINE1": "1 59801U 24093V   25315.27385619  .00001167  00000+0  51918-4 0  9990",
    "TLE_LINE2": "2 59801  43.0016 157.7843 0001184 261.5847  98.4870 15.27588312 84584",
    "COMMENT": "Grouped by shell and plane from TLE"
  }
]